<?xml version="1.0" encoding="UTF-8"?>
<ndm xmlns:xsi="http://www.w3.org/2001/XMLSchema-instance" xsi:noNamespaceSchemaLocation="https://sanaregistry.org/r/ndmxml_unqualified/ndmxml-2.0.0-master-2.0.xsd">
<omm id="CCSDS_OMM_VERS" version="2.0">
<header><CREATION_DATE/><ORIGINATOR/></header><body><segment><metadata><OBJECT_NAME>KUIPER-00016</OBJECT_NAME><OBJECT_ID>2025-088J</OBJECT_ID><CENTER_NAME>EARTH</CENTER_NAME><REF_FRAME>TEME</REF_FRAME><TIME_SYSTEM>UTC</TIME_SYSTEM><MEAN_ELEMENT_THEORY>SGP4</MEAN_ELEMENT_THEORY></metadata><data><meanElements><EPOCH>2025-10-22T11:26:00.394080</EPOCH><MEAN_MOTION>14.79884673</MEAN_MOTION><ECCENTRICITY>.0011642</ECCENTRICITY><INCLINATION>51.9011</INCLINATION><RA_OF_ASC_NODE>2.7716</RA_OF_ASC_NODE><ARG_OF_PERICENTER>331.3603</ARG_OF_PERICENTER><MEAN_ANOMALY>28.6718</MEAN_ANOMALY></meanElements><tleParameters><EPHEMERIS_TYPE>0</EPHEMERIS_TYPE><CLASSIFICATION_TYPE>U</CLASSIFICATION_TYPE><NORAD_CAT_ID>63732</NORAD_CAT_ID><ELEMENT_SET_NO>999</ELEMENT_SET_NO><REV_AT_EPOCH>2686</REV_AT_EPOCH><BSTAR>-.17862E-2</BSTAR><MEAN_MOTION_DOT>-.13813E-3</MEAN_MOTION_DOT><MEAN_MOTION_DDOT>0</MEAN_MOTION_DDOT></tleParameters></data></segment></body></omm>
<omm id="CCSDS_OMM_VERS" version="2.0">
<header><CREATION_DATE/><ORIGINATOR/></header><body><segment><metadata><OBJECT_NAME>KUIPER-00018</OBJECT_NAME><OBJECT_ID>2025-088K</OBJECT_ID><CENTER_NAME>EARTH</CENTER_NAME><REF_FRAME>TEME</REF_FRAME><TIME_SYSTEM>UTC</TIME_SYSTEM><MEAN_ELEMENT_THEORY>SGP4</MEAN_ELEMENT_THEORY></metadata><data><meanElements><EPOCH>2025-10-22T11:16:04.272960</EPOCH><MEAN_MOTION>14.77125131</MEAN_MOTION><ECCENTRICITY>.0012798</ECCENTRICITY><INCLINATION>51.9024</INCLINATION><RA_OF_ASC_NODE>351.5511</RA_OF_ASC_NODE><ARG_OF_PERICENTER>356.2241</ARG_OF_PERICENTER><MEAN_ANOMALY>3.8622</MEAN_ANOMALY></meanElements><tleParameters><EPHEMERIS_TYPE>0</EPHEMERIS_TYPE><CLASSIFICATION_TYPE>U</CLASSIFICATION_TYPE><NORAD_CAT_ID>63733</NORAD_CAT_ID><ELEMENT_SET_NO>999</ELEMENT_SET_NO><REV_AT_EPOCH>2702</REV_AT_EPOCH><BSTAR>.85465E-3</BSTAR><MEAN_MOTION_DOT>.5891E-4</MEAN_MOTION_DOT><MEAN_MOTION_DDOT>0</MEAN_MOTION_DDOT></tleParameters></data></segment></body></omm>
<omm id="CCSDS_OMM_VERS" version="2.0">
<header><CREATION_DATE/><ORIGINATOR/></header><body><segment><metadata><OBJECT_NAME>KUIPER-00019</OBJECT_NAME><OBJECT_ID>2025-088L</OBJECT_ID><CENTER_NAME>EARTH</CENTER_NAME><REF_FRAME>TEME</REF_FRAME><TIME_SYSTEM>UTC</TIME_SYSTEM><MEAN_ELEMENT_THEORY>SGP4</MEAN_ELEMENT_THEORY></metadata><data><meanElements><EPOCH>2025-10-22T10:08:30.652800</EPOCH><MEAN_MOTION>14.79903224</MEAN_MOTION><ECCENTRICITY>.0009359</ECCENTRICITY><INCLINATION>51.9003</INCLINATION><RA_OF_ASC_NODE>350.5165</RA_OF_ASC_NODE><ARG_OF_PERICENTER>8.4296</ARG_OF_PERICENTER><MEAN_ANOMALY>351.6822</MEAN_ANOMALY></meanElements><tleParameters><EPHEMERIS_TYPE>0</EPHEMERIS_TYPE><CLASSIFICATION_TYPE>U</CLASSIFICATION_TYPE><NORAD_CAT_ID>63734</NORAD_CAT_ID><ELEMENT_SET_NO>999</ELEMENT_SET_NO><REV_AT_EPOCH>2703</REV_AT_EPOCH><BSTAR>.50307E-3</BSTAR><MEAN_MOTION_DOT>.3614E-4</MEAN_MOTION_DOT><MEAN_MOTION_DDOT>0</MEAN_MOTION_DDOT></tleParameters></data></segment></body></omm>
<omm id="CCSDS_OMM_VERS" version="2.0">
<header><CREATION_DATE/><ORIGINATOR/></header><body><segment><metadata><OBJECT_NAME>KUIPER-00020</OBJECT_NAME><OBJECT_ID>2025-088M</OBJECT_ID><CENTER_NAME>EARTH</CENTER_NAME><REF_FRAME>TEME</REF_FRAME><TIME_SYSTEM>UTC</TIME_SYSTEM><MEAN_ELEMENT_THEORY>SGP4</MEAN_ELEMENT_THEORY></metadata><data><meanElements><EPOCH>2025-10-22T10:03:32.404320</EPOCH><MEAN_MOTION>14.79918035</MEAN_MOTION><ECCENTRICITY>.0008019</ECCENTRICITY><INCLINATION>51.9018</INCLINATION><RA_OF_ASC_NODE>354.5089</RA_OF_ASC_NODE><ARG_OF_PERICENTER>345.5562</ARG_OF_PERICENTER><MEAN_ANOMALY>14.5170</MEAN_ANOMALY></meanElements><tleParameters><EPHEMERIS_TYPE>0</EPHEMERIS_TYPE><CLASSIFICATION_TYPE>U</CLASSIFICATION_TYPE><NORAD_CAT_ID>63735</NORAD_CAT_ID><ELEMENT_SET_NO>999</ELEMENT_SET_NO><REV_AT_EPOCH>2718</REV_AT_EPOCH><BSTAR>.82543E-3</BSTAR><MEAN_MOTION_DOT>.6076E-4</MEAN_MOTION_DOT><MEAN_MOTION_DDOT>0</MEAN_MOTION_DDOT></tleParameters></data></segment></body></omm>
<omm id="CCSDS_OMM_VERS" version="2.0">
<header><CREATION_DATE/><ORIGINATOR/></header><body><segment><metadata><OBJECT_NAME>KUIPER-00021</OBJECT_NAME><OBJECT_ID>2025-088N</OBJECT_ID><CENTER_NAME>EARTH</CENTER_NAME><REF_FRAME>TEME</REF_FRAME><TIME_SYSTEM>UTC</TIME_SYSTEM><MEAN_ELEMENT_THEORY>SGP4</MEAN_ELEMENT_THEORY></metadata><data><meanElements><EPOCH>2025-10-22T11:37:38.165664</EPOCH><MEAN_MOTION>14.79944766</MEAN_MOTION><ECCENTRICITY>.0006289</ECCENTRICITY><INCLINATION>51.9020</INCLINATION><RA_OF_ASC_NODE>355.2168</RA_OF_ASC_NODE><ARG_OF_PERICENTER>348.6704</ARG_OF_PERICENTER><MEAN_ANOMALY>11.4116</MEAN_ANOMALY></meanElements><tleParameters><EPHEMERIS_TYPE>0</EPHEMERIS_TYPE><CLASSIFICATION_TYPE>U</CLASSIFICATION_TYPE><NORAD_CAT_ID>63736</NORAD_CAT_ID><ELEMENT_SET_NO>999</ELEMENT_SET_NO><REV_AT_EPOCH>2701</REV_AT_EPOCH><BSTAR>.62914E-3</BSTAR><MEAN_MOTION_DOT>.458E-4</MEAN_MOTION_DOT><MEAN_MOTION_DDOT>0</MEAN_MOTION_DDOT></tleParameters></data></segment></body></omm>
<omm id="CCSDS_OMM_VERS" version="2.0">
<header><CREATION_DATE/><ORIGINATOR/></header><body><segment><metadata><OBJECT_NAME>KUIPER-00023</OBJECT_NAME><OBJECT_ID>2025-088P</OBJECT_ID><CENTER_NAME>EARTH</CENTER_NAME><REF_FRAME>TEME</REF_FRAME><TIME_SYSTEM>UTC</TIME_SYSTEM><MEAN_ELEMENT_THEORY>SGP4</MEAN_ELEMENT_THEORY></metadata><data><meanElements><EPOCH>2025-10-22T11:36:14.309280</EPOCH><MEAN_MOTION>14.79927924</MEAN_MOTION><ECCENTRICITY>.0011657</ECCENTRICITY><INCLINATION>51.9029</INCLINATION><RA_OF_ASC_NODE>356.6892</RA_OF_ASC_NODE><ARG_OF_PERICENTER>2.7932</ARG_OF_PERICENTER><MEAN_ANOMALY>357.3093</MEAN_ANOMALY></meanElements><tleParameters><EPHEMERIS_TYPE>0</EPHEMERIS_TYPE><CLASSIFICATION_TYPE>U</CLASSIFICATION_TYPE><NORAD_CAT_ID>63737</NORAD_CAT_ID><ELEMENT_SET_NO>999</ELEMENT_SET_NO><REV_AT_EPOCH>2729</REV_AT_EPOCH><BSTAR>.42488E-3</BSTAR><MEAN_MOTION_DOT>.3019E-4</MEAN_MOTION_DOT><MEAN_MOTION_DDOT>0</MEAN_MOTION_DDOT></tleParameters></data></segment></body></omm>
<omm id="CCSDS_OMM_VERS" version="2.0">
<header><CREATION_DATE/><ORIGINATOR/></header><body><segment><metadata><OBJECT_NAME>KUIPER-00024</OBJECT_NAME><OBJECT_ID>2025-088Q</OBJECT_ID><CENTER_NAME>EARTH</CENTER_NAME><REF_FRAME>TEME</REF_FRAME><TIME_SYSTEM>UTC</TIME_SYSTEM><MEAN_ELEMENT_THEORY>SGP4</MEAN_ELEMENT_THEORY></metadata><data><meanElements><EPOCH>2025-10-22T09:52:47.213184</EPOCH><MEAN_MOTION>14.79340469</MEAN_MOTION><ECCENTRICITY>.0004508</ECCENTRICITY><INCLINATION>51.9045</INCLINATION><RA_OF_ASC_NODE>344.3583</RA_OF_ASC_NODE><ARG_OF_PERICENTER>3.6690</ARG_OF_PERICENTER><MEAN_ANOMALY>356.4305</MEAN_ANOMALY></meanElements><tleParameters><EPHEMERIS_TYPE>0</EPHEMERIS_TYPE><CLASSIFICATION_TYPE>U</CLASSIFICATION_TYPE><NORAD_CAT_ID>63738</NORAD_CAT_ID><ELEMENT_SET_NO>999</ELEMENT_SET_NO><REV_AT_EPOCH>2758</REV_AT_EPOCH><BSTAR>.45656E-3</BSTAR><MEAN_MOTION_DOT>.3213E-4</MEAN_MOTION_DOT><MEAN_MOTION_DDOT>0</MEAN_MOTION_DDOT></tleParameters></data></segment></body></omm>
<omm id="CCSDS_OMM_VERS" version="2.0">
<header><CREATION_DATE/><ORIGINATOR/></header><body><segment><metadata><OBJECT_NAME>KUIPER-00025</OBJECT_NAME><OBJECT_ID>2025-088R</OBJECT_ID><CENTER_NAME>EARTH</CENTER_NAME><REF_FRAME>TEME</REF_FRAME><TIME_SYSTEM>UTC</TIME_SYSTEM><MEAN_ELEMENT_THEORY>SGP4</MEAN_ELEMENT_THEORY></metadata><data><meanElements><EPOCH>2025-10-22T08:27:32.988096</EPOCH><MEAN_MOTION>14.80008943</MEAN_MOTION><ECCENTRICITY>.0009076</ECCENTRICITY><INCLINATION>51.9017</INCLINATION><RA_OF_ASC_NODE>353.3321</RA_OF_ASC_NODE><ARG_OF_PERICENTER>344.0208</ARG_OF_PERICENTER><MEAN_ANOMALY>16.0467</MEAN_ANOMALY></meanElements><tleParameters><EPHEMERIS_TYPE>0</EPHEMERIS_TYPE><CLASSIFICATION_TYPE>U</CLASSIFICATION_TYPE><NORAD_CAT_ID>63739</NORAD_CAT_ID><ELEMENT_SET_NO>999</ELEMENT_SET_NO><REV_AT_EPOCH>2731</REV_AT_EPOCH><BSTAR>.37231E-2</BSTAR><MEAN_MOTION_DOT>.28349E-3</MEAN_MOTION_DOT><MEAN_MOTION_DDOT>0</MEAN_MOTION_DDOT></tleParameters></data></segment></body></omm>

</ndm>
