KUIPER-00016            
1 63732U 25088J   25295.47639345 -.00013813  00000+0 -17862-2 0  9991
2 63732  51.9011   2.7716 0011642 331.3603  28.6718 14.79884673 26867
KUIPER-00018            
1 63733U 25088K   25295.46949390  .00005891  00000+0  85465-3 0  9995
2 63733  51.9024 351.5511 0012798 356.2241   3.8622 14.77125131 27020
KUIPER-00019            
1 63734U 25088L   25295.42257700  .00003614  00000+0  50307-3 0  9997
2 63734  51.9003 350.5165 0009359   8.4296 351.6822 14.79903224 27033
KUIPER-00020            
1 63735U 25088M   25295.41912505  .00006076  00000+0  82543-3 0  9990
2 63735  51.9018 354.5089 0008019 345.5562  14.5170 14.79918035 27185
KUIPER-00021            
1 63736U 25088N   25295.48446951  .00004580  00000+0  62914-3 0  9993
2 63736  51.9020 355.2168 0006289 348.6704  11.4116 14.79944766 27012
KUIPER-00023            
1 63737U 25088P   25295.48349895  .00003019  00000+0  42488-3 0  9993
2 63737  51.9029 356.6892 0011657   2.7932 357.3093 14.79927924 27290
KUIPER-00024            
1 63738U 25088Q   25295.41165756  .00003213  00000+0  45656-3 0  9995
2 63738  51.9045 344.3583 0004508   3.6690 356.4305 14.79340469 27589
KUIPER-00025            
1 63739U 25088R   25295.35246514  .00028349  00000+0  37231-2 0  9997
2 63739  51.9017 353.3321 0009076 344.0208  16.0467 14.80008943 27310
